IRIDIUM 116             
1 43072U 17083C   23312.57239037  .00000605  00000+0  20889-3 0  9992
2 43072  86.3998 359.7342 0002267  91.5692 268.5764 14.34223098307771
IRIDIUM 130             
1 43073U 17083D   23312.54068167  .00000190  00000+0  60882-4 0  9991
2 43073  86.4008 359.9303 0002150  96.6322 263.5119 14.34215341307716
IRIDIUM 151             
1 43074U 17083E   23312.65484575 -.00000065  00000+0 -30118-4 0  9991
2 43074  86.4002 359.7359 0002188  88.5272 271.6174 14.34217236307755
IRIDIUM 134             
1 43075U 17083F   23312.83243894  .00000597  00000+0  20605-3 0  9996
2 43075  86.4001 359.6568 0002210  96.7224 263.4224 14.34221979307743
IRIDIUM 137             
1 43076U 17083G   23312.63582112  .00000582  00000+0  20069-3 0  9992
2 43076  86.4004 359.8122 0002504  91.3411 268.8071 14.34216499307784
IRIDIUM 141             
1 43077U 17083H   23312.55970586  .00000608  00000+0  20998-3 0  9990
2 43077  86.3998 359.7291 0002025  90.6591 269.4836 14.34222658307770
IRIDIUM 153             
1 43078U 17083J   23312.58165667  .00000578  00000+0  19946-3 0  9997
2 43078  86.3954 328.1812 0001842  89.9968 270.1439 14.34219514308885
IRIDIUM 131             
1 43079U 17083K   23312.54702212  .00000544  00000+0  18730-3 0  9990
2 43079  86.4005 359.8567 0002007  93.7950 266.3476 14.34221372307703
